{"spkid": "50607649", "covariance": {"epoch": "2456448.5", "labels": ["e", "q", "tp", "node", "peri", "i"], "elements": [{"label": "e", "title": "eccentricity", "value": ".4120744833813394", "units": null, "name": "e", "sigma": 5.57532819984057e-08}, {"name": "q", "sigma": 7.16026148319966e-08, "units": "au", "value": ".7776137009371666", "title": "perihelion distance", "label": "q"}, {"label": "tp", "units": "TDB", "title": "time of perihelion passage", "value": "2456235.978438992711", "sigma": 6.11430190786191e-06, "name": "tp"}, {"label": "node", "title": "longitude of the ascending node", "value": "318.2374768329087", "units": "deg", "name": "om", "sigma": 2.42541280098081e-05}, {"label": "peri", "title": "argument of perihelion", "value": "105.6722366689622", "units": "deg", "name": "w", "sigma": 2.57742287652843e-05}, {"label": "i", "sigma": 9.60506592112211e-06, "name": "i", "units": "deg", "title": "inclination", "value": "6.670558913399462"}], "data": [["3.108428453593747E-15", "-3.991129151542101E-15", "-1.296593892766451E-15", "1.065180652394649E-13", "2.850500580426089E-13", "1.014601966162702E-13"], ["-3.991129151542101E-15", "5.126934450779258E-15", "7.337529556849312E-16", "-1.369205930120326E-13", "-3.664502890062152E-13", "-1.306946761465815E-13"], ["-1.296593892766451E-15", "7.337529556849312E-16", "3.738468782048376E-11", "-1.61542695870922E-11", "4.794020619733092E-11", "-1.614577337496499E-12"], ["1.065180652394649E-13", "-1.369205930120326E-13", "-1.61542695870922E-11", "5.882627255161592E-10", "-5.8648165942726E-10", "1.58961266878531E-10"], ["2.850500580426089E-13", "-3.664502890062152E-13", "4.794020619733092E-11", "-5.8648165942726E-10", "6.643108684452097E-10", "-1.501390155253079E-10"], ["1.014601966162702E-13", "-1.306946761465815E-13", "-1.614577337496499E-12", "1.58961266878531E-10", "-1.501390155253079E-10", "9.225729134910133E-11"]]}, "elements": [{"label": "e", "title": "eccentricity", "value": ".4122009644526881", "units": null, "name": "e", "sigma": "5.5941E-8"}, {"value": "1.323675807450403", "title": "semi-major axis", "units": "au", "name": "a", "sigma": "4.3071E-9", "label": "a"}, {"title": "perihelion distance", "value": ".7780553629966561", "units": "au", "sigma": "7.1542E-8", "name": "q", "label": "q"}, {"name": "i", "sigma": "9.6085E-6", "units": "deg", "title": "inclination; angle with respect to x-y ecliptic plane", "value": "6.670454001729451", "label": "i"}, {"label": "node", "title": "longitude of the ascending node", "value": "318.0760044592522", "units": "deg", "name": "om", "sigma": "2.4312E-5"}, {"label": "peri", "units": "deg", "value": "105.8949376251585", "title": "argument of perihelion", "sigma": "2.5861E-5", "name": "w"}, {"label": "M", "name": "ma", "sigma": "1.5053E-5", "units": "deg", "title": "mean anomaly", "value": "335.192181845563"}, {"sigma": "2.3427E-5", "name": "tp", "units": "TDB", "title": "time of perihelion passage", "value": "2461238.831599602553", "label": "tp"}, {"label": "period", "name": "per", "sigma": "2.715E-6", "units": "d", "title": "sidereal orbital period", "value": "556.2510887097483"}, {"label": "n", "sigma": "3.1588E-9", "name": "n", "title": "mean motion", "value": ".6471897445361189", "units": "deg/d"}, {"label": "Q", "value": "1.869296251904149", "title": "aphelion distance", "units": "au", "name": "ad", "sigma": "6.0825E-9"}], "epoch": "2461200.5"}